start=new Date('2023-02-24T00:00:00.000Z').valueOf();
sats=[{"MEAN_ANOMALY":"274.7080","MEAN_ELEMENT_THEORY":"SGP4","MEAN_MOTION_DDOT":"0.0000000000000","PERIAPSIS":"538.687","APOAPSIS":"540.802","RCS_SIZE":"LARGE","TIME_SYSTEM":"UTC","COUNTRY_CODE":"US","FILE":"3829370","MEAN_MOTION":"15.08840290","OBJECT_TYPE":"PAYLOAD","BSTAR":"0.00140160000000","LAUNCH_DATE":"2022-07-17","RA_OF_ASC_NODE":"106.3276","EPOCH":"2023-02-23T20:43:40.943712","TLE_LINE1":"1 53157U 22083AB  23054.86366833  .00022089  00000-0  14016-2 0  9998","REF_FRAME":"TEME","GP_ID":"226582265","INCLINATION":"53.2156","DECAY_DATE":null,"MEAN_MOTION_DOT":"0.00022089","SEMIMAJOR_AXIS":"6917.880","OBJECT_NAME":"STARLINK-4093","NORAD_CAT_ID":"53157","ECCENTRICITY":"0.00015290","ARG_OF_PERICENTER":"85.4086","EPHEMERIS_TYPE":"0","TLE_LINE2":"2 53157  53.2156 106.3276 0001529  85.4086 274.7080 15.08840290 34448","CLASSIFICATION_TYPE":"U","REV_AT_EPOCH":"3444","OBJECT_ID":"2022-083AB","ELEMENT_SET_NO":"999","SITE":"AFETR","CENTER_NAME":"EARTH","PERIOD":"95.438"},{"TIME_SYSTEM":"UTC","RCS_SIZE":"LARGE","APOAPSIS":"540.555","COUNTRY_CODE":"US","MEAN_ELEMENT_THEORY":"SGP4","MEAN_MOTION_DDOT":"0.0000000000000","MEAN_ANOMALY":"273.8697","PERIAPSIS":"538.886","RA_OF_ASC_NODE":"108.3535","TLE_LINE1":"1 53158U 22083AC  23054.41102670  .00028358  00000-0  17923-2 0  9992","REF_FRAME":"TEME","INCLINATION":"53.2155","GP_ID":"226568586","EPOCH":"2023-02-23T09:51:52.706880","OBJECT_TYPE":"PAYLOAD","BSTAR":"0.00179230000000","MEAN_MOTION":"15.08848113","FILE":"3828819","LAUNCH_DATE":"2022-07-17","SEMIMAJOR_AXIS":"6917.856","OBJECT_NAME":"STARLINK-4054","NORAD_CAT_ID":"53158","DECAY_DATE":null,"MEAN_MOTION_DOT":"0.00028358","CENTER_NAME":"EARTH","ELEMENT_SET_NO":"999","SITE":"AFETR","PERIOD":"95.437","ARG_OF_PERICENTER":"86.2433","ECCENTRICITY":"0.00012060","OBJECT_ID":"2022-083AC","REV_AT_EPOCH":"3374","TLE_LINE2":"2 53158  53.2155 108.3535 0001206  86.2433 273.8697 15.08848113 33743","CLASSIFICATION_TYPE":"U","EPHEMERIS_TYPE":"0"},{"RA_OF_ASC_NODE":"107.8405","EPOCH":"2023-02-23T12:36:08.951040","INCLINATION":"53.2186","GP_ID":"226568836","REF_FRAME":"TEME","TLE_LINE1":"1 53159U 22083AD  23054.52510360  .00000582  00000-0  54674-4 0  9999","FILE":"3828819","MEAN_MOTION":"15.08839651","BSTAR":"0.00005467400000","OBJECT_TYPE":"PAYLOAD","LAUNCH_DATE":"2022-07-17","RCS_SIZE":"LARGE","APOAPSIS":"540.770","TIME_SYSTEM":"UTC","COUNTRY_CODE":"US","MEAN_ANOMALY":"261.1533","MEAN_MOTION_DDOT":"0.0000000000000","MEAN_ELEMENT_THEORY":"SGP4","PERIAPSIS":"538.723","ELEMENT_SET_NO":"999","SITE":"AFETR","CENTER_NAME":"EARTH","PERIOD":"95.438","ECCENTRICITY":"0.00014790","ARG_OF_PERICENTER":"98.9627","TLE_LINE2":"2 53159  53.2186 107.8405 0001479  98.9627 261.1533 15.08839651 33763","CLASSIFICATION_TYPE":"U","EPHEMERIS_TYPE":"0","OBJECT_ID":"2022-083AD","REV_AT_EPOCH":"3376","SEMIMAJOR_AXIS":"6917.881","NORAD_CAT_ID":"53159","OBJECT_NAME":"STARLINK-4111","DECAY_DATE":null,"MEAN_MOTION_DOT":"0.00000582"},{"ELEMENT_SET_NO":"999","SITE":"AFETR","CENTER_NAME":"EARTH","PERIOD":"95.437","ECCENTRICITY":"0.00014040","ARG_OF_PERICENTER":"94.8233","CLASSIFICATION_TYPE":"U","TLE_LINE2":"2 53160  53.2161 106.3030 0001404  94.8233 265.2919 15.08841866 34442","EPHEMERIS_TYPE":"0","OBJECT_ID":"2022-083AE","REV_AT_EPOCH":"3444","SEMIMAJOR_AXIS":"6917.875","OBJECT_NAME":"STARLINK-4096","NORAD_CAT_ID":"53160","DECAY_DATE":null,"MEAN_MOTION_DOT":"0.00028101","RA_OF_ASC_NODE":"106.3030","EPOCH":"2023-02-23T20:49:00.704064","TLE_LINE1":"1 53160U 22083AE  23054.86736926  .00028101  00000-0  17766-2 0  9992","REF_FRAME":"TEME","INCLINATION":"53.2161","GP_ID":"226582611","MEAN_MOTION":"15.08841866","FILE":"3829397","OBJECT_TYPE":"PAYLOAD","BSTAR":"0.00177660000000","LAUNCH_DATE":"2022-07-17","RCS_SIZE":"LARGE","APOAPSIS":"540.711","TIME_SYSTEM":"UTC","COUNTRY_CODE":"US","MEAN_ANOMALY":"265.2919","MEAN_ELEMENT_THEORY":"SGP4","MEAN_MOTION_DDOT":"0.0000000000000","PERIAPSIS":"538.768"},{"MEAN_MOTION_DOT":"0.00020428","DECAY_DATE":null,"OBJECT_NAME":"STARLINK-4055","NORAD_CAT_ID":"53161","SEMIMAJOR_AXIS":"6917.865","REV_AT_EPOCH":"3374","OBJECT_ID":"2022-083AF","CLASSIFICATION_TYPE":"U","TLE_LINE2":"2 53161  53.2137 108.4916 0001235 101.7849 258.3282 15.08845041 33742","EPHEMERIS_TYPE":"0","ARG_OF_PERICENTER":"101.7849","ECCENTRICITY":"0.00012350","PERIOD":"95.437","CENTER_NAME":"EARTH","ELEMENT_SET_NO":"999","SITE":"AFETR","PERIAPSIS":"538.876","MEAN_ELEMENT_THEORY":"SGP4","MEAN_MOTION_DDOT":"0.0000000000000","MEAN_ANOMALY":"258.3282","COUNTRY_CODE":"US","TIME_SYSTEM":"UTC","RCS_SIZE":"LARGE","APOAPSIS":"540.584","LAUNCH_DATE":"2022-07-17","BSTAR":"0.00129770000000","OBJECT_TYPE":"PAYLOAD","FILE":"3828819","MEAN_MOTION":"15.08845041","TLE_LINE1":"1 53161U 22083AF  23054.38158300  .00020428  00000-0  12977-2 0  9997","REF_FRAME":"TEME","INCLINATION":"53.2137","GP_ID":"226567837","EPOCH":"2023-02-23T09:09:28.771200","RA_OF_ASC_NODE":"108.4916"},{"ARG_OF_PERICENTER":"88.9692","ECCENTRICITY":"0.00010460","OBJECT_ID":"2022-083AG","REV_AT_EPOCH":"3376","CLASSIFICATION_TYPE":"U","TLE_LINE2":"2 53162  53.2155 107.8296 0001046  88.9692 271.1420 15.08840475 33764","EPHEMERIS_TYPE":"0","CENTER_NAME":"EARTH","SITE":"AFETR","ELEMENT_SET_NO":"999","PERIOD":"95.438","DECAY_DATE":null,"MEAN_MOTION_DOT":"0.00014821","SEMIMAJOR_AXIS":"6917.879","OBJECT_NAME":"STARLINK-4114","NORAD_CAT_ID":"53162","OBJECT_TYPE":"PAYLOAD","BSTAR":"0.00094735000000","FILE":"3828819","MEAN_MOTION":"15.08840475","LAUNCH_DATE":"2022-07-17","RA_OF_ASC_NODE":"107.8296","TLE_LINE1":"1 53162U 22083AG  23054.52878525  .00014821  00000-0  94735-3 0  9995","REF_FRAME":"TEME","GP_ID":"226568087","INCLINATION":"53.2155","EPOCH":"2023-02-23T12:41:27.045600","MEAN_ELEMENT_THEORY":"SGP4","MEAN_MOTION_DDOT":"0.0000000000000","MEAN_ANOMALY":"271.1420","PERIAPSIS":"539.020","TIME_SYSTEM":"UTC","RCS_SIZE":"LARGE","APOAPSIS":"540.468","COUNTRY_CODE":"US"},{"NORAD_CAT_ID":"53163","OBJECT_NAME":"STARLINK-4104","SEMIMAJOR_AXIS":"6917.887","MEAN_MOTION_DOT":"0.00006452","DECAY_DATE":null,"PERIOD":"95.438","CENTER_NAME":"EARTH","ELEMENT_SET_NO":"999","SITE":"AFETR","OBJECT_ID":"2022-083AH","REV_AT_EPOCH":"3374","CLASSIFICATION_TYPE":"U","TLE_LINE2":"2 53163  53.2140 108.5153 0001446 100.8600 259.2555 15.08837690 33745","EPHEMERIS_TYPE":"0","ARG_OF_PERICENTER":"100.8600","ECCENTRICITY":"0.00014460","COUNTRY_CODE":"US","TIME_SYSTEM":"UTC","RCS_SIZE":"LARGE","APOAPSIS":"540.753","PERIAPSIS":"538.752","MEAN_MOTION_DDOT":"0.0000000000000","MEAN_ELEMENT_THEORY":"SGP4","MEAN_ANOMALY":"259.2555","GP_ID":"226569335","INCLINATION":"53.2140","REF_FRAME":"TEME","TLE_LINE1":"1 53163U 22083AH  23054.37518340  .00006452  00000-0  42309-3 0  9996","EPOCH":"2023-02-23T09:00:15.845760","RA_OF_ASC_NODE":"108.5153","LAUNCH_DATE":"2022-07-17","BSTAR":"0.00042309000000","OBJECT_TYPE":"PAYLOAD","FILE":"3828819","MEAN_MOTION":"15.08837690"},{"TLE_LINE1":"1 53164U 22083AJ  23054.51774661  .00001774  00000-0  12956-3 0  9990","REF_FRAME":"TEME","GP_ID":"226569588","INCLINATION":"53.2148","EPOCH":"2023-02-23T12:25:33.307104","RA_OF_ASC_NODE":"107.8802","LAUNCH_DATE":"2022-07-17","BSTAR":"0.00012956000000","OBJECT_TYPE":"PAYLOAD","MEAN_MOTION":"15.08836864","FILE":"3828819","COUNTRY_CODE":"US","TIME_SYSTEM":"UTC","APOAPSIS":"540.892","RCS_SIZE":"LARGE","PERIAPSIS":"538.618","MEAN_ELEMENT_THEORY":"SGP4","MEAN_MOTION_DDOT":"0.0000000000000","MEAN_ANOMALY":"265.4360","PERIOD":"95.438","CENTER_NAME":"EARTH","ELEMENT_SET_NO":"999","SITE":"AFETR","OBJECT_ID":"2022-083AJ","REV_AT_EPOCH":"3376","CLASSIFICATION_TYPE":"U","TLE_LINE2":"2 53164  53.2148 107.8802 0001643  94.6820 265.4360 15.08836864 33767","EPHEMERIS_TYPE":"0","ARG_OF_PERICENTER":"94.6820","ECCENTRICITY":"0.00016430","OBJECT_NAME":"STARLINK-4116","NORAD_CAT_ID":"53164","SEMIMAJOR_AXIS":"6917.890","MEAN_MOTION_DOT":"0.00001774","DECAY_DATE":null},{"TIME_SYSTEM":"UTC","RCS_SIZE":"LARGE","APOAPSIS":"540.814","COUNTRY_CODE":"US","MEAN_MOTION_DDOT":"0.0000000000000","MEAN_ELEMENT_THEORY":"SGP4","MEAN_ANOMALY":"262.5437","PERIAPSIS":"538.679","RA_OF_ASC_NODE":"106.4574","INCLINATION":"53.2139","GP_ID":"226582360","TLE_LINE1":"1 53165U 22083AK  23054.83422855  .00008931  00000-0  57852-3 0  9997","REF_FRAME":"TEME","EPOCH":"2023-02-23T20:01:17.346720","BSTAR":"0.00057852000000","OBJECT_TYPE":"PAYLOAD","FILE":"3829376","MEAN_MOTION":"15.08839671","LAUNCH_DATE":"2022-07-17","SEMIMAJOR_AXIS":"6917.881","NORAD_CAT_ID":"53165","OBJECT_NAME":"STARLINK-4090","DECAY_DATE":null,"MEAN_MOTION_DOT":"0.00008931","CENTER_NAME":"EARTH","ELEMENT_SET_NO":"999","SITE":"AFETR","PERIOD":"95.438","ARG_OF_PERICENTER":"97.5731","ECCENTRICITY":"0.00015430","REV_AT_EPOCH":"3444","OBJECT_ID":"2022-083AK","CLASSIFICATION_TYPE":"U","TLE_LINE2":"2 53165  53.2139 106.4574 0001543  97.5731 262.5437 15.08839671 34449","EPHEMERIS_TYPE":"0"},{"DECAY_DATE":null,"MEAN_MOTION_DOT":"0.00026073","SEMIMAJOR_AXIS":"6917.905","OBJECT_NAME":"STARLINK-4110","NORAD_CAT_ID":"53166","ECCENTRICITY":"0.00010770","ARG_OF_PERICENTER":"100.7966","TLE_LINE2":"2 53166  53.2140 108.5077 0001077 100.7966 259.3147 15.08832091 33745","EPHEMERIS_TYPE":"0","CLASSIFICATION_TYPE":"U","OBJECT_ID":"2022-083AL","REV_AT_EPOCH":"3374","ELEMENT_SET_NO":"999","SITE":"AFETR","CENTER_NAME":"EARTH","PERIOD":"95.438","MEAN_ANOMALY":"259.3147","MEAN_ELEMENT_THEORY":"SGP4","MEAN_MOTION_DDOT":"0.0000000000000","PERIAPSIS":"539.025","APOAPSIS":"540.515","RCS_SIZE":"LARGE","TIME_SYSTEM":"UTC","COUNTRY_CODE":"US","MEAN_MOTION":"15.08832091","FILE":"3828819","OBJECT_TYPE":"PAYLOAD","BSTAR":"0.00165060000000","LAUNCH_DATE":"2022-07-17","RA_OF_ASC_NODE":"108.5077","EPOCH":"2023-02-23T09:04:11.136288","REF_FRAME":"TEME","TLE_LINE1":"1 53166U 22083AL  23054.37790667  .00026073  00000-0  16506-2 0  9993","INCLINATION":"53.2140","GP_ID":"226568587"}];
